0 FENGYUN 1C DEB
1 30133U 99025SN  13281.40385262  .00001010  00000-0  76677-3 0  1079
2 30133 098.3559 059.4078 0095274 156.0237 272.3280 13.93727208342123
0 FENGYUN 1C DEB
1 30133U 99025SN  13282.63625152  .00000920  00000-0  70059-3 0  1088
2 30133 098.3559 060.5225 0095206 152.6785 335.7001 13.93733739342294
0 FENGYUN 1C DEB
1 30133U 99025SN  13283.64124054  .00001007  00000-0  76456-3 0  1090
2 30133 098.3559 061.4315 0095189 149.9233 338.1242 13.93736843342430
0 FENGYUN 1C DEB
1 30133U 99025SN  13285.87176735  .00001141  00000-0  86197-3 0  1115
2 30133 098.3563 063.4491 0095187 143.7754 009.6293 13.93740117342749
0 FENGYUN 1C DEB
1 30133U 99025SN  13287.00878052  .00001412  00000-0  10607-2 0  1127
2 30133 098.3565 064.4776 0095155 140.6407 314.5268 13.93741724342907
0 FENGYUN 1C DEB
1 30133U 99025SN  13288.36471352  .00001939  00000-0  14461-2 0  1136
2 30133 098.3568 065.7039 0095136 136.8844 277.8715 13.93746196343094
0 FENGYUN 1C DEB
1 30133U 99025SN  13290.02363780  .00001765  00000-0  13187-2 0  1149
2 30133 098.3570 067.2045 0095059 132.3086 321.4702 13.93751892343321
0 FENGYUN 1C DEB
1 30133U 99025SN  13291.38093527  .00001722  00000-0  12870-2 0  1150
2 30133 098.3571 068.4323 0095001 128.5626 291.6903 13.93757253343517
0 FENGYUN 1C DEB
1 30133U 99025SN  13292.38614414  .00001703  00000-0  12727-2 0  1166
2 30133 098.3572 069.3415 0094952 125.7891 295.3250 13.93761397343652
0 FENGYUN 1C DEB
1 30133U 99025SN  13293.39163260  .00001691  00000-0  12640-2 0  1177
2 30133 098.3571 070.2512 0094877 123.0272 300.3643 13.93766303343790
0 FENGYUN 1C DEB
1 30133U 99025SN  13294.61140311  .00001493  00000-0  11197-2 0  1182
2 30133 098.3570 071.3547 0094770 119.6721 300.5887 13.93772136343963
